{
  "norad_id": 66925,
  "name": "STARLINK-35945",
  "history": [
    {
      "epoch": "2026-04-15T12:22:09.740064Z",
      "apogee_km": 475.5908185917042,
      "perigee_km": 474.8740932140072,
      "latitude_deg": 6.061769080344959e-05,
      "longitude_deg": 158.26771340523814,
      "height_km": 475.8990603739919,
      "semi_major_axis_km": 6853.369455902855,
      "eccentricity": 5.229e-05,
      "inclination_deg": 53.1574,
      "raan_deg": 187.4846,
      "arg_perigee_deg": 49.5861,
      "mean_anomaly_deg": 310.5186,
      "mean_motion_rev_day": 15.30194177
    },
    {
      "epoch": "2026-04-16T11:52:57.625824Z",
      "apogee_km": 475.86348415128487,
      "perigee_km": 474.5928702474321,
      "latitude_deg": 5.973915837806053e-06,
      "longitude_deg": 160.0559936120551,
      "height_km": 476.1235728275572,
      "semi_major_axis_km": 6853.365177199358,
      "eccentricity": 9.27e-05,
      "inclination_deg": 53.1587,
      "raan_deg": 182.9381,
      "arg_perigee_deg": 89.7295,
      "mean_anomaly_deg": 270.3812,
      "mean_motion_rev_day": 15.3019561
    },
    {
      "epoch": "2026-04-17T14:31:51.968640Z",
      "apogee_km": 475.898964868843,
      "perigee_km": 474.5779082196941,
      "latitude_deg": -1.5219276591171437e-05,
      "longitude_deg": 114.07583900435287,
      "height_km": 476.05083076089664,
      "semi_major_axis_km": 6853.375436544268,
      "eccentricity": 9.638e-05,
      "inclination_deg": 53.1594,
      "raan_deg": 177.7788,
      "arg_perigee_deg": 82.5153,
      "mean_anomaly_deg": 277.5957,
      "mean_motion_rev_day": 15.30192174
    },
    {
      "epoch": "2026-04-18T10:54:33.346368Z",
      "apogee_km": 475.89875568818843,
      "perigee_km": 474.4635338023154,
      "latitude_deg": -3.757636834426696e-05,
      "longitude_deg": 163.62311428666254,
      "height_km": 475.9778243554587,
      "semi_major_axis_km": 6853.318144745252,
      "eccentricity": 0.00010471,
      "inclination_deg": 53.1591,
      "raan_deg": 173.8354,
      "arg_perigee_deg": 81.8585,
      "mean_anomaly_deg": 278.2534,
      "mean_motion_rev_day": 15.30211362
    },
    {
      "epoch": "2026-04-19T13:33:27.709056Z",
      "apogee_km": 475.35032945315197,
      "perigee_km": 475.00629302452853,
      "latitude_deg": -1.3435162882445353e-05,
      "longitude_deg": 117.64450805907498,
      "height_km": 476.1029865740129,
      "semi_major_axis_km": 6853.31531123884,
      "eccentricity": 2.51e-05,
      "inclination_deg": 53.159,
      "raan_deg": 168.6777,
      "arg_perigee_deg": 98.482,
      "mean_anomaly_deg": 261.6209,
      "mean_motion_rev_day": 15.30212311
    },
    {
      "epoch": "2026-04-20T09:56:10.216896Z",
      "apogee_km": 476.2349251680771,
      "perigee_km": 474.2490900668299,
      "latitude_deg": 2.3036726369615624e-05,
      "longitude_deg": 167.1865035649237,
      "height_km": 476.1558544075408,
      "semi_major_axis_km": 6853.379007617454,
      "eccentricity": 0.00014488,
      "inclination_deg": 53.1596,
      "raan_deg": 164.7337,
      "arg_perigee_deg": 90.9273,
      "mean_anomaly_deg": 269.1894,
      "mean_motion_rev_day": 15.30190978
    },
    {
      "epoch": "2026-04-21T20:25:19.890624Z",
      "apogee_km": 476.2900965216604,
      "perigee_km": 474.054547020899,
      "latitude_deg": 5.3178776771308873e-05,
      "longitude_deg": 1.8054247630218738,
      "height_km": 475.94100192624336,
      "semi_major_axis_km": 6853.309321771279,
      "eccentricity": 0.0001631,
      "inclination_deg": 53.1596,
      "raan_deg": 158.0592,
      "arg_perigee_deg": 83.3799,
      "mean_anomaly_deg": 276.7388,
      "mean_motion_rev_day": 15.30214317
    },
    {
      "epoch": "2026-04-22T08:57:45.428544Z",
      "apogee_km": 476.1920919327731,
      "perigee_km": 474.259580680191,
      "latitude_deg": 1.037350082374795e-06,
      "longitude_deg": 170.75705957236065,
      "height_km": 476.06645737571426,
      "semi_major_axis_km": 6853.362836306482,
      "eccentricity": 0.00014099,
      "inclination_deg": 53.1604,
      "raan_deg": 155.6323,
      "arg_perigee_deg": 86.5999,
      "mean_anomaly_deg": 273.5163,
      "mean_motion_rev_day": 15.30196394
    },
    {
      "epoch": "2026-04-23T08:28:33.582144Z",
      "apogee_km": 476.0413780372246,
      "perigee_km": 474.39698375517946,
      "latitude_deg": 1.0985866384404649e-05,
      "longitude_deg": 172.53936479547238,
      "height_km": 476.1757270118794,
      "semi_major_axis_km": 6853.356180896201,
      "eccentricity": 0.00011997,
      "inclination_deg": 53.16,
      "raan_deg": 151.0809,
      "arg_perigee_deg": 94.0713,
      "mean_anomaly_deg": 266.0425,
      "mean_motion_rev_day": 15.30198623
    },
    {
      "epoch": "2026-04-24T11:07:29.233920Z",
      "apogee_km": 476.0682025502965,
      "perigee_km": 474.45080097588107,
      "latitude_deg": -4.646032741783385e-05,
      "longitude_deg": 126.55701102133906,
      "height_km": 476.045431172812,
      "semi_major_axis_km": 6853.396501763088,
      "eccentricity": 0.000118,
      "inclination_deg": 53.1585,
      "raan_deg": 145.9249,
      "arg_perigee_deg": 82.0303,
      "mean_anomaly_deg": 278.0831,
      "mean_motion_rev_day": 15.30185119
    },
    {
      "epoch": "2026-04-25T18:28:32.975040Z",
      "apogee_km": 475.9495659457443,
      "perigee_km": 474.413051980875,
      "latitude_deg": -7.66281648975706e-05,
      "longitude_deg": 8.937058584762484,
      "height_km": 475.93895771645776,
      "semi_major_axis_km": 6853.318308963309,
      "eccentricity": 0.0001121,
      "inclination_deg": 53.1577,
      "raan_deg": 139.8581,
      "arg_perigee_deg": 79.468,
      "mean_anomaly_deg": 280.6446,
      "mean_motion_rev_day": 15.30211307
    },
    {
      "epoch": "2026-04-26T17:59:19.746240Z",
      "apogee_km": 475.84245611337155,
      "perigee_km": 474.35653737614757,
      "latitude_deg": -4.81874739802121e-05,
      "longitude_deg": 10.72555590881317,
      "height_km": 475.80435224976185,
      "semi_major_axis_km": 6853.236496744759,
      "eccentricity": 0.00010841,
      "inclination_deg": 53.1566,
      "raan_deg": 135.3071,
      "arg_perigee_deg": 74.9289,
      "mean_anomaly_deg": 285.1831,
      "mean_motion_rev_day": 15.30238708
    },
    {
      "epoch": "2026-04-27T17:30:07.435008Z",
      "apogee_km": 476.02995396627193,
      "perigee_km": 474.3865217782304,
      "latitude_deg": -4.341529759358643e-05,
      "longitude_deg": 12.509702266360874,
      "height_km": 475.95040356788235,
      "semi_major_axis_km": 6853.34523787225,
      "eccentricity": 0.0001199,
      "inclination_deg": 53.1562,
      "raan_deg": 130.7556,
      "arg_perigee_deg": 79.0819,
      "mean_anomaly_deg": 281.0316,
      "mean_motion_rev_day": 15.30202288
    },
    {
      "epoch": "2026-04-28T10:44:42.069696Z",
      "apogee_km": 475.9968881957748,
      "perigee_km": 474.36442792962316,
      "latitude_deg": 1.966627724667245e-06,
      "longitude_deg": 109.82188246092552,
      "height_km": 476.1221169757117,
      "semi_major_axis_km": 6853.317658062699,
      "eccentricity": 0.0001191,
      "inclination_deg": 53.1566,
      "raan_deg": 127.4202,
      "arg_perigee_deg": 93.0645,
      "mean_anomaly_deg": 267.0492,
      "mean_motion_rev_day": 15.30211525
    },
    {
      "epoch": "2026-04-29T07:07:24.104064Z",
      "apogee_km": 476.1487246017032,
      "perigee_km": 474.33806150185865,
      "latitude_deg": 2.3311544755469162e-05,
      "longitude_deg": 159.3648468284574,
      "height_km": 476.2038227537934,
      "semi_major_axis_km": 6853.380393051781,
      "eccentricity": 0.0001321,
      "inclination_deg": 53.1574,
      "raan_deg": 123.4752,
      "arg_perigee_deg": 93.9718,
      "mean_anomaly_deg": 266.1434,
      "mean_motion_rev_day": 15.30190514
    },
    {
      "epoch": "2026-04-30T05:04:08.817024Z",
      "apogee_km": 475.9896342843358,
      "perigee_km": 474.41747796076197,
      "latitude_deg": -8.361335612169666e-06,
      "longitude_deg": -174.97156076578204,
      "height_km": 476.2401235365015,
      "semi_major_axis_km": 6853.340556122549,
      "eccentricity": 0.0001147,
      "inclination_deg": 53.1575,
      "raan_deg": 119.2264,
      "arg_perigee_deg": 100.1531,
      "mean_anomaly_deg": 259.9599,
      "mean_motion_rev_day": 15.30203856
    },
    {
      "epoch": "2026-05-02T08:47:54.496608Z",
      "apogee_km": 475.8897034678512,
      "perigee_km": 474.54507533665037,
      "latitude_deg": -5.412574880472937e-06,
      "longitude_deg": 116.95395816155308,
      "height_km": 475.961485164872,
      "semi_major_axis_km": 6853.3543894022505,
      "eccentricity": 9.81e-05,
      "inclination_deg": 53.1575,
      "raan_deg": 109.2167,
      "arg_perigee_deg": 76.7461,
      "mean_anomaly_deg": 283.3649,
      "mean_motion_rev_day": 15.30199223
    },
    {
      "epoch": "2026-05-03T16:08:58.471008Z",
      "apogee_km": 476.255782855118,
      "perigee_km": 474.15728906440836,
      "latitude_deg": 6.393155105186495e-05,
      "longitude_deg": -0.6721977008207658,
      "height_km": 476.35365965217284,
      "semi_major_axis_km": 6853.343535959763,
      "eccentricity": 0.0001531,
      "inclination_deg": 53.1603,
      "raan_deg": 103.1446,
      "arg_perigee_deg": 103.7466,
      "mean_anomaly_deg": 256.3706,
      "mean_motion_rev_day": 15.30202858
    },
    {
      "epoch": "2026-05-04T15:39:46.571904Z",
      "apogee_km": 476.2338581760523,
      "perigee_km": 474.18470763746336,
      "latitude_deg": -1.461674252017902e-06,
      "longitude_deg": 1.111670425456408,
      "height_km": 476.2652718944694,
      "semi_major_axis_km": 6853.346282906758,
      "eccentricity": 0.0001495,
      "inclination_deg": 53.1597,
      "raan_deg": 98.5946,
      "arg_perigee_deg": 98.8843,
      "mean_anomaly_deg": 261.2327,
      "mean_motion_rev_day": 15.30201938
    }
  ]
}